S-NET D                 
1 43186U 18014G   22109.43825241  .00001876  00000+0  16510-3 0  9996
2 43186  97.6629  16.3053 0012017 128.8065 231.4233 14.97652242230085
S-NET B                 
1 43187U 18014H   22109.50513763  .00001791  00000+0  15779-3 0  9990
2 43187  97.6625  16.3252 0012008 128.5376 231.6924 14.97650749230095
S-NET A                 
1 43188U 18014J   22109.50538842  .00001786  00000+0  15739-3 0  9996
2 43188  97.6630  16.3853 0011995 128.6511 231.5787 14.97650185230095
S-NET C                 
1 43189U 18014K   22109.50601254  .00001719  00000+0  15171-3 0  9991
2 43189  97.6625  16.3155 0011976 128.6046 231.6251 14.97648069228640
FENGMANIU-1 (FMN-1)     
1 43192U 18015A   22109.49247000  .00027828  00000+0  82134-3 0  9991
2 43192  97.5259 253.1863 0012134 235.7038 166.5359 15.34876470234396
SHAONIAN XING           
1 43199U 18015H   22109.50234521  .00017372  00000+0  56110-3 0  9992
2 43199  97.5034 248.8895 0013297 248.0317 176.9731 15.32092006234413
LUOJIA-1 01             
1 43485U 18048B   22109.48113959  .00001174  00000+0  17291-3 0  9994
2 43485  97.9344 191.6889 0012050  36.4064 323.7967 14.77198579209168
SURFSAT                 
1 43614U 18070B   22109.55258674  .00034916  00000+0  61081-3 0  9991
2 43614  93.0283  73.8247 0007745 234.5618 125.4920 15.50486917201921
CP7 (DAVE)              
1 43615U 18070C   22109.39478189  .00033148  00000+0  59608-3 0  9997
2 43615  93.0286  73.6481 0007969 238.3044 121.7440 15.49708736201870
ELFIN-B                 
1 43616U 18070D   22109.53252327  .00062978  00000+0  83089-3 0  9991
2 43616  93.0200  74.5649 0007140 214.1844 145.8962 15.58161512202157
ELFIN-A                 
1 43617U 18070E   22109.40995504  .00066940  00000+0  83998-3 0  9991
2 43617  93.0273  75.7366 0006858 203.1794 156.9163 15.59484513202172
CZ-4B R/B               
1 43656U 18081B   22109.34517410  .00000115  00000+0  53093-4 0  9991
2 43656  99.3867 238.4294 0207726 314.1242  44.3011 14.30538904181900
CUBEBEL-1 (BSUSAT-1)    
1 43666U 18083E   22109.44980375  .00009440  00000+0  41514-3 0  9993
2 43666  97.4263 138.8361 0014101 172.3971 296.0772 15.22006064192501
CHANGSHAGAOXIN (TY 4-01)
1 43669U 18083H   22109.51232534  .00008898  00000+0  40922-3 0  9999
2 43669  97.4202 135.0528 0010312 167.6544 351.6209 15.20530539192346
TEN-KOH                 
1 43677U 18084G   22109.62447303  .00001578  00000+0  16546-3 0  9996
2 43677  97.9543 239.1810 0017197 104.7105 255.6020 14.90908713188912
DIWATA-2B               
1 43678U 18084H   22109.57068959  .00000611  00000+0  65905-4 0  9998
2 43678  97.9595 242.1845 0011128 116.6421 243.5932 14.92040413189075
STARS-AO                
1 43679U 18084J   22109.36198878  .00002549  00000+0  24919-3 0  9991
2 43679  97.9645 243.7437 0010090 123.0916 237.1273 14.93237002189120
AUTCUBE 2               
1 43681U 18084K   22109.35479629  .00001925  00000+0  19225-3 0  9990
2 43681  97.9605 242.4733 0010532 117.8044 242.4243 14.92670748189031
IRVINE01                
1 43693U 18088D   22109.16933599  .00031431  00000+0  96328-3 0  9991
2 43693  85.0325 350.9154 0012191 343.4802  16.6047 15.33569119191126
ES'HAIL 2               
1 43700U 18090A   22109.52685196  .00000145  00000+0  00000+0 0  9996
2 43700   0.0138 261.1645 0002710 161.0496   0.8603  1.00273023 12435
FACSAT-1                
1 43721U 18096C   22109.50849804  .00018758  00000+0  57509-3 0  9990
2 43721  97.3532 189.4868 0013564 260.2356 156.8087 15.33733843188939
CENTAURI-2              
1 43722U 18096D   22109.47701888  .00024614  00000+0  69630-3 0  9992
2 43722  97.3569 191.1318 0013290 257.2349 102.7409 15.36216243189015
3CAT-1                  
1 43728U 18096K   22109.48511338  .00024210  00000+0  68136-3 0  9990
2 43728  97.3582 191.8722 0012869 259.9113 100.0680 15.36385902189056
INNOSAT-2               
1 43738U 18096V   22109.47610222  .00041663  00000+0  93014-3 0  9996
2 43738  97.3676 197.3425 0016408 250.3613 239.8709 15.43284922189393
REAKTOR HELLO WORLD     
1 43743U 18096AA  22109.46496335  .00012773  00000+0  41056-3 0  9997
2 43743  97.3542 189.6460 0014330 268.3185  91.6416 15.32300980188927
ELYSIUM STAR 2 & LFF    
1 43760U 18099C   22109.49349973  .00005322  00000+0  45594-3 0  9990
2 43760  97.6338 179.3215 0014855 100.8957 259.3937 14.97882941184294
2018-099D               
1 43761U 18099D   22109.53539924  .00001583  00000+0  14695-3 0  9996
2 43761  97.6261 177.8289 0016037 106.2403 254.0581 14.95693861184212
AISTECHSAT 2            
1 43768U 18099L   22109.42695722  .00001585  00000+0  14807-3 0  9997
2 43768  97.6213 176.3028 0012731 105.0014 255.2618 14.95482188183865
FOX-1CLIFF (AO-95)      
1 43770U 18099N   22109.47365171  .00003462  00000+0  31223-3 0  9994
2 43770  97.6251 177.3557 0016027 111.9934 248.2992 14.96087321184192
RANGE-A                 
1 43772U 18099Q   22109.49103099  .00003100  00000+0  27641-3 0  9995
2 43772  97.6360 178.9141 0015435  99.6590 260.6376 14.96620840184219
RANGE-B                 
1 43773U 18099R   22109.44831790  .00002100  00000+0  19302-3 0  9991
2 43773  97.6170 176.3022 0014779 101.0904 259.1980 14.95772928184179
2018-099T               
1 43775U 18099T   22109.44000660  .00001418  00000+0  13190-3 0  9997
2 43775  97.6252 177.4769 0015843 104.2823 256.0159 14.95775333184188
MOVE-II                 
1 43780U 18099Y   22109.47973359  .00005178  00000+0  45202-3 0  9996
2 43780  97.6289 178.3497 0015025 108.2335 252.0524 14.97155436184232
SNUSAT-2                
1 43782U 18099AA  22109.46089884  .00003028  00000+0  27256-3 0  9999
2 43782  97.6245 177.7878 0014111  99.8310 260.4506 14.96275403184212
SNUGLITE                
1 43784U 18099AC  22109.43937874  .00002443  00000+0  21978-3 0  9994
2 43784  97.6208 177.4197 0016014 106.2605 254.0380 14.96455806184236
ITASAT 1                
1 43786U 18099AE  22109.47357812  .00003230  00000+0  29018-3 0  9996
2 43786  97.6274 178.2401 0016760 105.6172 254.6900 14.96281861184230
KAZSCISAT-1             
1 43787U 18099AF  22109.46524640  .00005009  00000+0  43644-3 0  9998
2 43787  97.6187 177.3879 0015648 102.6194 257.6779 14.97236471184277
EAGLET-I                
1 43790U 18099AJ  22109.44355012  .00001773  00000+0  16073-3 0  9995
2 43790  97.6260 178.7315 0014364 108.9551 251.3228 14.96507445183969
ESEO                    
1 43792U 18099AL  22109.42464576  .00000739  00000+0  70706-4 0  9996
2 43792  97.6228 178.0121 0014704 105.5927 254.6918 14.96058544184000
CSIM-FD                 
1 43793U 18099AM  22109.47982496  .00005501  00000+0  47184-3 0  9993
2 43793  97.6293 179.1744 0014772 101.8679 258.4200 14.97820478184059
ASTROCAST 0.1           
1 43798U 18099AS  22109.46044050  .00004721  00000+0  41343-3 0  9996
2 43798  97.6267 179.1291 0013493  90.3251 269.9517 14.97091832184286
JY1SAT (JO-97)          
1 43803U 18099AX  22109.44250283  .00002879  00000+0  25657-3 0  9990
2 43803  97.6229 177.9530 0015981 105.4437 254.8552 14.96691254184242
SUOMI-100               
1 43804U 18099AY  22109.45692495  .00003097  00000+0  27609-3 0  9999
2 43804  97.6224 177.8999 0016390 105.9604 254.3425 14.96616306184252
AL-FARABI 2             
1 43805U 18099AZ  22109.53108900  .00003569  00000+0  31379-3 0  9995
2 43805  97.6248 178.3944 0016453 105.5542 254.7487 14.97067670184282
CENTAURI-1              
1 43809U 18099BD  22109.41419592  .00002668  00000+0  23959-3 0  9992
2 43809  97.6249 178.1837 0016775 105.9937 254.3134 14.96443632183947
CHOMPTT                 
1 43855U 18104G   22109.40064439  .00010153  00000+0  38675-3 0  9994
2 43855  85.0330  90.4862 0019016  96.2727 264.0684 15.26397470185711
DAVINCI                 
1 43857U 18104J   22109.42478621  .00034602  00000+0  10741-2 0  9998
2 43857  85.0262  89.0499 0016261 112.8885 247.4082 15.33094198185802
UWE-4                   
1 43880U 18111E   22109.55113748  .00003588  00000+0  31032-3 0  9998
2 43880  97.6715  16.8944 0013049 150.5092 209.6869 14.97750091180889
ZACUBE-2                
1 43907U 18111AH  22109.48523325  .00005028  00000+0  19330-3 0  9994
2 43907  97.1990 357.8947 0018530 291.4171 193.0398 15.26695048184298
MICRODRAGON             
1 43935U 19003D   22109.58086302  .00006351  00000+0  25612-3 0  9996
2 43935  97.1432 142.3738 0017729  29.8090 330.4155 15.25000732180728
AOBA VELOX-IV           
1 43940U 19003J   22109.58088573  .00028405  00000+0  86565-3 0  9992
2 43940  97.1348 147.2951 0018456   2.9764 357.1586 15.33756620181097
M6P                     
1 44109U 19018AF  22109.18777633  .00015603  00000+0  40856-3 0  9993
2 44109  97.3968 192.8115 0048806 341.8392  18.1107 15.37559980170340
FORMOSAT 7-4            
1 44350U 19036M   22109.58718855  .00004393  00000+0  25010-3 0  9995
2 44350  24.0003  68.3664 0006144  99.8688 260.2509 15.08889707154561
PAINANI 1               
1 44365U 19037A   22109.34519310  .00033889  00000+0  59943-3 0  9995
2 44365  45.0015 345.7716 0009072 216.7563 143.2707 15.49737498158050
ACRUX 1                 
1 44369U 19037E   22109.53790834  .00143856  00000+0  11252-2 0  9998
2 44369  44.9978 296.6043 0016595 256.4562 103.4488 15.70294171158600
METEOR-M2 2             
1 44387U 19038A   22109.46912565  .00000012  00000+0  24473-4 0  9995
2 44387  98.7164  70.7403 0002487  83.0768 277.0692 14.23705831145015
VDNH-80                 
1 44392U 19038G   22109.52343096  .00009383  00000+0  48840-3 0  9998
2 44392  97.6287  79.0743 0019036 342.5847 157.1484 15.16094848153910
D-STAR ONE (LIGHTSAT)   
1 44393U 19038H   22109.44440995  .00010049  00000+0  52289-3 0  9999
2 44393  97.6322  78.8693 0019375 343.1809  16.8778 15.16079780154098
AMGU-1 (AMURSAT)        
1 44394U 19038J   22109.58701597  .00010068  00000+0  52184-3 0  9998
2 44394  97.6285  78.9524 0019486 343.2638  16.7942 15.16214862154112
